[{"OBJECT_NAME":"STARLINK-34297","OBJECT_ID":"2025-120F","EPOCH":"2026-03-09T09:49:50.101824","MEAN_MOTION":15.30205385,"ECCENTRICITY":0.00010533,"INCLINATION":53.1583,"RA_OF_ASC_NODE":117.9679,"ARG_OF_PERICENTER":89.9966,"MEAN_ANOMALY":270.1155,"EPHEMERIS_TYPE":0,"CLASSIFICATION_TYPE":"U","NORAD_CAT_ID":64261,"ELEMENT_SET_NO":999,"REV_AT_EPOCH":4377,"BSTAR":0.00086585803,"MEAN_MOTION_DOT":0.00025377,"MEAN_MOTION_DDOT":0},{"OBJECT_NAME":"FENGYUN 1C DEB","OBJECT_ID":"1999-025AJJ","EPOCH":"2026-03-09T18:40:58.380672","MEAN_MOTION":15.18672988,"ECCENTRICITY":0.00638575,"INCLINATION":98.7226,"RA_OF_ASC_NODE":259.4919,"ARG_OF_PERICENTER":168.3626,"MEAN_ANOMALY":191.9098,"EPHEMERIS_TYPE":0,"CLASSIFICATION_TYPE":"U","NORAD_CAT_ID":30520,"ELEMENT_SET_NO":999,"REV_AT_EPOCH":2360,"BSTAR":0.0014000942,"MEAN_MOTION_DOT":0.0003064,"MEAN_MOTION_DDOT":0}]
